{"type": "FeatureCollection", "features": [ {"type": "Feature", "properties": {"norad_id": 32384, "name": "GPS BIIRM-5 (PRN 29)", "group": "gps-ops", "lat": 0.4310372477140013, "lon": 101.34857108878437, "alt_km": 20099.2686248276, "timestamp": "2025-12-12T07:43:20.772173+00:00", "meta": {"OBJECT_NAME": "GPS BIIRM-5 (PRN 29)", "OBJECT_ID": "2007-062A", "EPOCH": "2025-12-11T19:20:30.701760", "MEAN_MOTION": 2.00577226, "ECCENTRICITY": 0.00322349, "INCLINATION": 55.183, "RA_OF_ASC_NODE": 281.6834, "ARG_OF_PERICENTER": 162.4856, "MEAN_ANOMALY": 4.3365, "EPHEMERIS_TYPE": 0, "CLASSIFICATION_TYPE": "U", "NORAD_CAT_ID": 32384, "ELEMENT_SET_NO": 999, "REV_AT_EPOCH": 13175, "BSTAR": 0, "MEAN_MOTION_DOT": -7.4e-07, "MEAN_MOTION_DDOT": 0}, "tle": {"line1": "1 32384U 07062A   25345.80591090 -.00000074  00000+0  00000+0 0  9996", "line2": "2 32384  55.1830 281.6834 0032234 162.4856   4.3365  2.00577226131751"}}, "geometry": {"type": "Point", "coordinates": [101.34857108878437, 0.4310372477140013]}}, {"type": "Feature", "properties": {"norad_id": 32711, "name": "GPS BIIRM-6 (PRN 07)", "group": "gps-ops", "lat": 52.651672229763676, "lon": -92.05969099899471, "alt_km": 20599.33051189066, "timestamp": "2025-12-12T07:43:20.772185+00:00", "meta": {"OBJECT_NAME": "GPS BIIRM-6 (PRN 07)", "OBJECT_ID": "2008-012A", "EPOCH": "2025-12-11T16:14:23.546688", "MEAN_MOTION": 2.00565584, "ECCENTRICITY": 0.02024008, "INCLINATION": 54.477, "RA_OF_ASC_NODE": 157.4153, "ARG_OF_PERICENTER": 244.9354, "MEAN_ANOMALY": 112.9612, "EPHEMERIS_TYPE": 0, "CLASSIFICATION_TYPE": "U", "NORAD_CAT_ID": 32711, "ELEMENT_SET_NO": 999, "REV_AT_EPOCH": 12999, "BSTAR": 0, "MEAN_MOTION_DOT": 8.9e-07, "MEAN_MOTION_DDOT": 0}, "tle": {"line1": "1 32711U 08012A   25345.67666142  .00000089  00000+0  00000+0 0  9997", "line2": "2 32711  54.4770 157.4153 0202400 244.9354 112.9612  2.00565584129995"}}, "geometry": {"type": "Point", "coordinates": [-92.05969099899471, 52.651672229763676]}}, {"type": "Feature", "properties": {"norad_id": 35752, "name": "GPS BIIRM-8 (PRN 05)", "group": "gps-ops", "lat": 43.4224931458231, "lon": 175.3128040711548, "alt_km": 20074.44240140231, "timestamp": "2025-12-12T07:43:20.772214+00:00", "meta": {"OBJECT_NAME": "GPS BIIRM-8 (PRN 05)", "OBJECT_ID": "2009-043A", "EPOCH": "2025-12-11T15:37:32.913696", "MEAN_MOTION": 2.00565741, "ECCENTRICITY": 0.00518358, "INCLINATION": 56.0903, "RA_OF_ASC_NODE": 34.8259, "ARG_OF_PERICENTER": 81.9315, "MEAN_ANOMALY": 277.4877, "EPHEMERIS_TYPE": 0, "CLASSIFICATION_TYPE": "U", "NORAD_CAT_ID": 35752, "ELEMENT_SET_NO": 999, "REV_AT_EPOCH": 11959, "BSTAR": 0, "MEAN_MOTION_DOT": -9.6e-07, "MEAN_MOTION_DDOT": 0}, "tle": {"line1": "1 35752U 09043A   25345.65107539 -.00000096  00000+0  00000+0 0  9997", "line2": "2 35752  56.0903  34.8259 0051835  81.9315 277.4877  2.00565741119594"}}, "geometry": {"type": "Point", "coordinates": [175.3128040711548, 43.4224931458231]}}, {"type": "Feature", "properties": {"norad_id": 36585, "name": "GPS BIIF-1  (PRN 25)", "group": "gps-ops", "lat": -45.88362659294032, "lon": 83.92648027130326, "alt_km": 20522.875638353606, "timestamp": "2025-12-12T07:43:20.772226+00:00", "meta": {"OBJECT_NAME": "GPS BIIF-1  (PRN 25)", "OBJECT_ID": "2010-022A", "EPOCH": "2025-12-11T07:42:38.318976", "MEAN_MOTION": 2.00553138, "ECCENTRICITY": 0.01260446, "INCLINATION": 54.3003, "RA_OF_ASC_NODE": 216.1311, "ARG_OF_PERICENTER": 65.0548, "MEAN_ANOMALY": 174.6737, "EPHEMERIS_TYPE": 0, "CLASSIFICATION_TYPE": "U", "NORAD_CAT_ID": 36585, "ELEMENT_SET_NO": 999, "REV_AT_EPOCH": 11382, "BSTAR": 0, "MEAN_MOTION_DOT": 1.4e-07, "MEAN_MOTION_DDOT": 0}, "tle": {"line1": "1 36585U 10022A   25345.32127684  .00000014  00000+0  00000+0 0  9997", "line2": "2 36585  54.3003 216.1311 0126044  65.0548 174.6737  2.00553138113821"}}, "geometry": {"type": "Point", "coordinates": [83.92648027130326, -45.88362659294032]}}, {"type": "Feature", "properties": {"norad_id": 38833, "name": "GPS BIIF-3  (PRN 24)", "group": "gps-ops", "lat": -17.90017724166537, "lon": 137.43729799275914, "alt_km": 20147.76770432365, "timestamp": "2025-12-12T07:43:20.772238+00:00", "meta": {"OBJECT_NAME": "GPS BIIF-3  (PRN 24)", "OBJECT_ID": "2012-053A", "EPOCH": "2025-12-09T20:38:00.572640", "MEAN_MOTION": 2.00564945, "ECCENTRICITY": 0.0175755, "INCLINATION": 53.5569, "RA_OF_ASC_NODE": 151.3565, "ARG_OF_PERICENTER": 63.953, "MEAN_ANOMALY": 297.8432, "EPHEMERIS_TYPE": 0, "CLASSIFICATION_TYPE": "U", "NORAD_CAT_ID": 38833, "ELEMENT_SET_NO": 999, "REV_AT_EPOCH": 9564, "BSTAR": 0, "MEAN_MOTION_DOT": 6.8e-07, "MEAN_MOTION_DDOT": 0}, "tle": {"line1": "1 38833U 12053A   25343.85972885  .00000068  00000+0  00000+0 0  9997", "line2": "2 38833  53.5569 151.3565 0175755  63.9530 297.8432  2.00564945 95646"}}, "geometry": {"type": "Point", "coordinates": [137.43729799275914, -17.90017724166537]}}, {"type": "Feature", "properties": {"norad_id": 39166, "name": "GPS BIIF-4  (PRN 27)", "group": "gps-ops", "lat": 52.91338835510748, "lon": -13.75211148796877, "alt_km": 19855.91106995793, "timestamp": "2025-12-12T07:43:20.772250+00:00", "meta": {"OBJECT_NAME": "GPS BIIF-4  (PRN 27)", "OBJECT_ID": "2013-023A", "EPOCH": "2025-12-11T05:15:59.310144", "MEAN_MOTION": 2.0056514, "ECCENTRICITY": 0.01377988, "INCLINATION": 54.6533, "RA_OF_ASC_NODE": 276.63, "ARG_OF_PERICENTER": 48.5969, "MEAN_ANOMALY": 312.5932, "EPHEMERIS_TYPE": 0, "CLASSIFICATION_TYPE": "U", "NORAD_CAT_ID": 39166, "ELEMENT_SET_NO": 999, "REV_AT_EPOCH": 9211, "BSTAR": 0, "MEAN_MOTION_DOT": -6.7e-07, "MEAN_MOTION_DDOT": 0}, "tle": {"line1": "1 39166U 13023A   25345.21943646 -.00000067  00000+0  00000+0 0  9990", "line2": "2 39166  54.6533 276.6300 0137798  48.5969 312.5932  2.00565140 92114"}}, "geometry": {"type": "Point", "coordinates": [-13.75211148796877, 52.91338835510748]}}, {"type": "Feature", "properties": {"norad_id": 39533, "name": "GPS BIIF-5  (PRN 30)", "group": "gps-ops", "lat": 52.23570936593486, "lon": -130.99132448872317, "alt_km": 20351.69510389825, "timestamp": "2025-12-12T07:43:20.772261+00:00", "meta": {"OBJECT_NAME": "GPS BIIF-5  (PRN 30)", "OBJECT_ID": "2014-008A", "EPOCH": "2025-12-11T17:05:22.086816", "MEAN_MOTION": 2.00574377, "ECCENTRICITY": 0.00791888, "INCLINATION": 53.6311, "RA_OF_ASC_NODE": 156.9665, "ARG_OF_PERICENTER": 226.4865, "MEAN_ANOMALY": 132.8633, "EPHEMERIS_TYPE": 0, "CLASSIFICATION_TYPE": "U", "NORAD_CAT_ID": 39533, "ELEMENT_SET_NO": 999, "REV_AT_EPOCH": 8592, "BSTAR": 0, "MEAN_MOTION_DOT": 8.7e-07, "MEAN_MOTION_DDOT": 0}, "tle": {"line1": "1 39533U 14008A   25345.71206119  .00000087  00000+0  00000+0 0  9995", "line2": "2 39533  53.6311 156.9665 0079188 226.4865 132.8633  2.00574377 85923"}}, "geometry": {"type": "Point", "coordinates": [-130.99132448872317, 52.23570936593486]}}, {"type": "Feature", "properties": {"norad_id": 39741, "name": "GPS BIIF-6  (PRN 06)", "group": "gps-ops", "lat": -43.154677166312574, "lon": -162.97363679942129, "alt_km": 20175.272854373055, "timestamp": "2025-12-12T07:43:20.772273+00:00", "meta": {"OBJECT_NAME": "GPS BIIF-6  (PRN 06)", "OBJECT_ID": "2014-026A", "EPOCH": "2025-12-11T11:55:13.475136", "MEAN_MOTION": 2.00561432, "ECCENTRICITY": 0.00391541, "INCLINATION": 56.584, "RA_OF_ASC_NODE": 338.8247, "ARG_OF_PERICENTER": 318.6056, "MEAN_ANOMALY": 41.1101, "EPHEMERIS_TYPE": 0, "CLASSIFICATION_TYPE": "U", "NORAD_CAT_ID": 39741, "ELEMENT_SET_NO": 999, "REV_AT_EPOCH": 8477, "BSTAR": 0, "MEAN_MOTION_DOT": -8.5e-07, "MEAN_MOTION_DDOT": 0}, "tle": {"line1": "1 39741U 14026A   25345.49668374 -.00000085  00000+0  00000+0 0  9995", "line2": "2 39741  56.5840 338.8247 0039154 318.6056  41.1101  2.00561432 84777"}}, "geometry": {"type": "Point", "coordinates": [-162.97363679942129, -43.154677166312574]}}, {"type": "Feature", "properties": {"norad_id": 40105, "name": "GPS BIIF-7  (PRN 09)", "group": "gps-ops", "lat": 5.588862394597246, "lon": -87.98432924271415, "alt_km": 20128.854509224573, "timestamp": "2025-12-12T07:43:20.772285+00:00", "meta": {"OBJECT_NAME": "GPS BIIF-7  (PRN 09)", "OBJECT_ID": "2014-045A", "EPOCH": "2025-12-11T14:01:23.585664", "MEAN_MOTION": 2.00572456, "ECCENTRICITY": 0.00327154, "INCLINATION": 55.2284, "RA_OF_ASC_NODE": 95.945, "ARG_OF_PERICENTER": 119.8377, "MEAN_ANOMALY": 240.477, "EPHEMERIS_TYPE": 0, "CLASSIFICATION_TYPE": "U", "NORAD_CAT_ID": 40105, "ELEMENT_SET_NO": 999, "REV_AT_EPOCH": 8231, "BSTAR": 0, "MEAN_MOTION_DOT": -5e-08, "MEAN_MOTION_DDOT": 0}, "tle": {"line1": "1 40105U 14045A   25345.58430076 -.00000005  00000+0  00000+0 0  9990", "line2": "2 40105  55.2284  95.9450 0032715 119.8377 240.4770  2.00572456 82313"}}, "geometry": {"type": "Point", "coordinates": [-87.98432924271415, 5.588862394597246]}}, {"type": "Feature", "properties": {"norad_id": 40294, "name": "GPS BIIF-8  (PRN 03)", "group": "gps-ops", "lat": -55.85744468246233, "lon": -67.52619602324349, "alt_km": 20346.063996393714, "timestamp": "2025-12-12T07:43:20.772296+00:00", "meta": {"OBJECT_NAME": "GPS BIIF-8  (PRN 03)", "OBJECT_ID": "2014-068A", "EPOCH": "2025-12-11T11:05:24.874944", "MEAN_MOTION": 2.00564727, "ECCENTRICITY": 0.00607772, "INCLINATION": 56.8569, "RA_OF_ASC_NODE": 38.1954, "ARG_OF_PERICENTER": 69.205, "MEAN_ANOMALY": 291.4964, "EPHEMERIS_TYPE": 0, "CLASSIFICATION_TYPE": "U", "NORAD_CAT_ID": 40294, "ELEMENT_SET_NO": 999, "REV_AT_EPOCH": 8144, "BSTAR": 0, "MEAN_MOTION_DOT": -9.3e-07, "MEAN_MOTION_DDOT": 0}, "tle": {"line1": "1 40294U 14068A   25345.46209346 -.00000093  00000+0  00000+0 0  9992", "line2": "2 40294  56.8569  38.1954 0060777  69.2050 291.4964  2.00564727 81444"}}, "geometry": {"type": "Point", "coordinates": [-67.52619602324349, -55.85744468246233]}}]}